KUIPER-00027            
1 63740U 25088S   26032.93693562  .00000823  00000+0  13720-3 0  9997
2 63740  51.8998 253.6797 0000326  32.5222 327.5761 14.79852979 42321
KUIPER-00028            
1 63741U 25088T   26032.94720641  .00001948  00000+0  26335-3 0  9993
2 63741  51.8988 251.5329 0004716  64.5408 295.6044 14.83301033 42769
KUIPER-00029            
1 63742U 25088U   26032.85797900  .00001887  00000+0  25531-3 0  9995
2 63742  51.9006 249.9122 0001132  74.5283 285.5806 14.83394543 42307
KUIPER-00030            
1 63743U 25088V   26032.85326504  .00003235  00000+0  45275-3 0  9990
2 63743  51.9004 269.0124 0011593 315.7400  44.2635 14.79963288 42329
KUIPER-00031            
1 63744U 25088W   26030.36674636  .00020855  00000+0  27507-2 0  9991
2 63744  51.8995 266.0490 0001751  46.1394 313.9713 14.80016033 41863
KUIPER-00032            
1 63745U 25088X   26032.82680569  .00012815  00000+0  37708-3 0  9999
2 63745  51.8690 197.3810 0003259 359.1765   0.9215 15.35420278 44035
KUIPER-00033            
1 63746U 25088Y   26032.90281600  .00003731  00000+0  51694-3 0  9999
2 63746  51.9011 284.8486 0000970  99.9248 260.1824 14.80038405 42307
KUIPER-00034            
1 63747U 25088Z   26032.91668981  .00042932  00000+0  52260-2 0  9997
2 63747  51.8995 247.2433 0001014 200.0561  51.5586 14.83007064  5762
KUIPER-00035            
1 63748U 25088AA  26032.84891123  .00003839  00000+0  53158-3 0  9997
2 63748  51.9004 272.6057 0003630 326.9509  33.1226 14.79992809 42207
KUIPER-00037            
1 63749U 25088AB  26032.85075400  .00003611  00000+0  50288-3 0  9990
2 63749  51.8991 271.5418 0000334  53.6711 306.4282 14.79896251 43009
KUIPER-00038            
1 63750U 25088AC  26032.86687433  .00002620  00000+0  37310-3 0  9998
2 63750  51.9003 256.4951 0001294  29.8202 330.2834 14.79876561 42218
KUIPER-00039            
1 64500U 25134A   26032.70438196  .00004197  00000+0  57906-3 0  9991
2 64500  51.9018  32.2132 0001389 216.7261 143.3606 14.79941346 34749
KUIPER-00040            
1 64501U 25134B   26032.01668792  .00003823  00000+0  52982-3 0  9997
2 64501  51.9000  46.4012 0015586 143.7938 216.4083 14.79926466 34487
KUIPER-00041            
1 64502U 25134C   26032.42007149  .00004168  00000+0  57314-3 0  9993
2 64502  51.8996  45.9620 0011102 145.5346 214.6338 14.80085482 34527
KUIPER-00042            
1 64503U 25134D   26032.22201533  .00003820  00000+0  52950-3 0  9990
2 64503  51.9001  42.8534 0011382 156.3328 203.8160 14.79942922 34551
KUIPER-00043            
1 64504U 25134E   26028.24575276  .00063423  00000+0  82413-2 0  9997
2 64504  51.9042  52.9057 0003438 140.5527 219.5686 14.80077498 34071
