[{"OBJECT_NAME":"KUIPER-00027","OBJECT_ID":"2025-088S","EPOCH":"2026-02-01T22:29:11.237568","MEAN_MOTION":14.79852979,"ECCENTRICITY":3.266e-5,"INCLINATION":51.8998,"RA_OF_ASC_NODE":253.6797,"ARG_OF_PERICENTER":32.5222,"MEAN_ANOMALY":327.5761,"EPHEMERIS_TYPE":0,"CLASSIFICATION_TYPE":"U","NORAD_CAT_ID":63740,"ELEMENT_SET_NO":999,"REV_AT_EPOCH":4232,"BSTAR":0.00013720029,"MEAN_MOTION_DOT":8.23e-6,"MEAN_MOTION_DDOT":0},{"OBJECT_NAME":"KUIPER-00028","OBJECT_ID":"2025-088T","EPOCH":"2026-02-01T22:43:58.633824","MEAN_MOTION":14.83301033,"ECCENTRICITY":0.00047162,"INCLINATION":51.8988,"RA_OF_ASC_NODE":251.5329,"ARG_OF_PERICENTER":64.5408,"MEAN_ANOMALY":295.6044,"EPHEMERIS_TYPE":0,"CLASSIFICATION_TYPE":"U","NORAD_CAT_ID":63741,"ELEMENT_SET_NO":999,"REV_AT_EPOCH":4276,"BSTAR":0.00026335043,"MEAN_MOTION_DOT":1.948e-5,"MEAN_MOTION_DDOT":0},{"OBJECT_NAME":"KUIPER-00029","OBJECT_ID":"2025-088U","EPOCH":"2026-02-01T20:35:29.385600","MEAN_MOTION":14.83394543,"ECCENTRICITY":0.00011325,"INCLINATION":51.9006,"RA_OF_ASC_NODE":249.9122,"ARG_OF_PERICENTER":74.5283,"MEAN_ANOMALY":285.5806,"EPHEMERIS_TYPE":0,"CLASSIFICATION_TYPE":"U","NORAD_CAT_ID":63742,"ELEMENT_SET_NO":999,"REV_AT_EPOCH":4230,"BSTAR":0.00025530605,"MEAN_MOTION_DOT":1.887e-5,"MEAN_MOTION_DDOT":0},{"OBJECT_NAME":"KUIPER-00030","OBJECT_ID":"2025-088V","EPOCH":"2026-02-01T20:28:42.099456","MEAN_MOTION":14.79963288,"ECCENTRICITY":0.00115934,"INCLINATION":51.9004,"RA_OF_ASC_NODE":269.0124,"ARG_OF_PERICENTER":315.74,"MEAN_ANOMALY":44.2635,"EPHEMERIS_TYPE":0,"CLASSIFICATION_TYPE":"U","NORAD_CAT_ID":63743,"ELEMENT_SET_NO":999,"REV_AT_EPOCH":4232,"BSTAR":0.00045275026,"MEAN_MOTION_DOT":3.235e-5,"MEAN_MOTION_DDOT":0},{"OBJECT_NAME":"KUIPER-00031","OBJECT_ID":"2025-088W","EPOCH":"2026-01-30T08:48:06.885504","MEAN_MOTION":14.80016033,"ECCENTRICITY":0.00017514,"INCLINATION":51.8995,"RA_OF_ASC_NODE":266.049,"ARG_OF_PERICENTER":46.1394,"MEAN_ANOMALY":313.9713,"EPHEMERIS_TYPE":0,"CLASSIFICATION_TYPE":"U","NORAD_CAT_ID":63744,"ELEMENT_SET_NO":999,"REV_AT_EPOCH":4186,"BSTAR":0.0027506878,"MEAN_MOTION_DOT":0.00020855,"MEAN_MOTION_DDOT":0},{"OBJECT_NAME":"KUIPER-00032","OBJECT_ID":"2025-088X","EPOCH":"2026-02-01T19:50:36.011616","MEAN_MOTION":15.35420278,"ECCENTRICITY":0.00032591,"INCLINATION":51.869,"RA_OF_ASC_NODE":197.381,"ARG_OF_PERICENTER":359.1765,"MEAN_ANOMALY":0.9215,"EPHEMERIS_TYPE":0,"CLASSIFICATION_TYPE":"U","NORAD_CAT_ID":63745,"ELEMENT_SET_NO":999,"REV_AT_EPOCH":4403,"BSTAR":0.00037707897,"MEAN_MOTION_DOT":0.00012815,"MEAN_MOTION_DDOT":0},{"OBJECT_NAME":"KUIPER-00033","OBJECT_ID":"2025-088Y","EPOCH":"2026-02-01T21:40:03.302400","MEAN_MOTION":14.80038405,"ECCENTRICITY":9.701e-5,"INCLINATION":51.9011,"RA_OF_ASC_NODE":284.8486,"ARG_OF_PERICENTER":99.9248,"MEAN_ANOMALY":260.1824,"EPHEMERIS_TYPE":0,"CLASSIFICATION_TYPE":"U","NORAD_CAT_ID":63746,"ELEMENT_SET_NO":999,"REV_AT_EPOCH":4230,"BSTAR":0.00051693749,"MEAN_MOTION_DOT":3.731e-5,"MEAN_MOTION_DDOT":0},{"OBJECT_NAME":"KUIPER-00034","OBJECT_ID":"2025-088Z","EPOCH":"2026-02-01T22:00:01.999584","MEAN_MOTION":14.83007064,"ECCENTRICITY":0.00010143,"INCLINATION":51.8995,"RA_OF_ASC_NODE":247.2433,"ARG_OF_PERICENTER":200.0561,"MEAN_ANOMALY":51.5586,"EPHEMERIS_TYPE":0,"CLASSIFICATION_TYPE":"U","NORAD_CAT_ID":63747,"ELEMENT_SET_NO":999,"REV_AT_EPOCH":576,"BSTAR":0.0052260472,"MEAN_MOTION_DOT":0.00042932,"MEAN_MOTION_DDOT":0},{"OBJECT_NAME":"KUIPER-00035","OBJECT_ID":"2025-088AA","EPOCH":"2026-02-01T20:22:25.930272","MEAN_MOTION":14.79992809,"ECCENTRICITY":0.00036307,"INCLINATION":51.9004,"RA_OF_ASC_NODE":272.6057,"ARG_OF_PERICENTER":326.9509,"MEAN_ANOMALY":33.1226,"EPHEMERIS_TYPE":0,"CLASSIFICATION_TYPE":"U","NORAD_CAT_ID":63748,"ELEMENT_SET_NO":999,"REV_AT_EPOCH":4220,"BSTAR":0.00053157921,"MEAN_MOTION_DOT":3.839e-5,"MEAN_MOTION_DDOT":0},{"OBJECT_NAME":"KUIPER-00037","OBJECT_ID":"2025-088AB","EPOCH":"2026-02-01T20:25:05.145600","MEAN_MOTION":14.79896251,"ECCENTRICITY":3.343e-5,"INCLINATION":51.8991,"RA_OF_ASC_NODE":271.5418,"ARG_OF_PERICENTER":53.6711,"MEAN_ANOMALY":306.4282,"EPHEMERIS_TYPE":0,"CLASSIFICATION_TYPE":"U","NORAD_CAT_ID":63749,"ELEMENT_SET_NO":999,"REV_AT_EPOCH":4300,"BSTAR":0.00050287775,"MEAN_MOTION_DOT":3.611e-5,"MEAN_MOTION_DDOT":0},{"OBJECT_NAME":"KUIPER-00038","OBJECT_ID":"2025-088AC","EPOCH":"2026-02-01T20:48:17.942112","MEAN_MOTION":14.79876561,"ECCENTRICITY":0.00012944,"INCLINATION":51.9003,"RA_OF_ASC_NODE":256.4951,"ARG_OF_PERICENTER":29.8202,"MEAN_ANOMALY":330.2834,"EPHEMERIS_TYPE":0,"CLASSIFICATION_TYPE":"U","NORAD_CAT_ID":63750,"ELEMENT_SET_NO":999,"REV_AT_EPOCH":4221,"BSTAR":0.00037310487,"MEAN_MOTION_DOT":2.62e-5,"MEAN_MOTION_DDOT":0},{"OBJECT_NAME":"KUIPER-00039","OBJECT_ID":"2025-134A","EPOCH":"2026-02-01T16:54:18.601344","MEAN_MOTION":14.79941346,"ECCENTRICITY":0.00013897,"INCLINATION":51.9018,"RA_OF_ASC_NODE":32.2132,"ARG_OF_PERICENTER":216.7261,"MEAN_ANOMALY":143.3606,"EPHEMERIS_TYPE":0,"CLASSIFICATION_TYPE":"U","NORAD_CAT_ID":64500,"ELEMENT_SET_NO":999,"REV_AT_EPOCH":3474,"BSTAR":0.00057906466,"MEAN_MOTION_DOT":4.197e-5,"MEAN_MOTION_DDOT":0},{"OBJECT_NAME":"KUIPER-00040","OBJECT_ID":"2025-134B","EPOCH":"2026-02-01T00:24:01.836288","MEAN_MOTION":14.79926466,"ECCENTRICITY":0.00155865,"INCLINATION":51.9,"RA_OF_ASC_NODE":46.4012,"ARG_OF_PERICENTER":143.7938,"MEAN_ANOMALY":216.4083,"EPHEMERIS_TYPE":0,"CLASSIFICATION_TYPE":"U","NORAD_CAT_ID":64501,"ELEMENT_SET_NO":999,"REV_AT_EPOCH":3448,"BSTAR":0.00052981912,"MEAN_MOTION_DOT":3.823e-5,"MEAN_MOTION_DDOT":0},{"OBJECT_NAME":"KUIPER-00041","OBJECT_ID":"2025-134C","EPOCH":"2026-02-01T10:04:54.176736","MEAN_MOTION":14.80085482,"ECCENTRICITY":0.00111027,"INCLINATION":51.8996,"RA_OF_ASC_NODE":45.962,"ARG_OF_PERICENTER":145.5346,"MEAN_ANOMALY":214.6338,"EPHEMERIS_TYPE":0,"CLASSIFICATION_TYPE":"U","NORAD_CAT_ID":64502,"ELEMENT_SET_NO":999,"REV_AT_EPOCH":3452,"BSTAR":0.00057313835,"MEAN_MOTION_DOT":4.168e-5,"MEAN_MOTION_DDOT":0},{"OBJECT_NAME":"KUIPER-00042","OBJECT_ID":"2025-134D","EPOCH":"2026-02-01T05:19:42.124512","MEAN_MOTION":14.79942922,"ECCENTRICITY":0.00113829,"INCLINATION":51.9001,"RA_OF_ASC_NODE":42.8534,"ARG_OF_PERICENTER":156.3328,"MEAN_ANOMALY":203.816,"EPHEMERIS_TYPE":0,"CLASSIFICATION_TYPE":"U","NORAD_CAT_ID":64503,"ELEMENT_SET_NO":999,"REV_AT_EPOCH":3455,"BSTAR":0.00052949936,"MEAN_MOTION_DOT":3.82e-5,"MEAN_MOTION_DDOT":0},{"OBJECT_NAME":"KUIPER-00043","OBJECT_ID":"2025-134E","EPOCH":"2026-01-28T05:53:53.038464","MEAN_MOTION":14.80077498,"ECCENTRICITY":0.00034389,"INCLINATION":51.9042,"RA_OF_ASC_NODE":52.9057,"ARG_OF_PERICENTER":140.5527,"MEAN_ANOMALY":219.5686,"EPHEMERIS_TYPE":0,"CLASSIFICATION_TYPE":"U","NORAD_CAT_ID":64504,"ELEMENT_SET_NO":999,"REV_AT_EPOCH":3407,"BSTAR":0.0082413481,"MEAN_MOTION_DOT":0.00063423,"MEAN_MOTION_DDOT":0}]
